NORAD_CAT_ID,OBJECT_NAME,OBJECT_TYPE,EPOCH,MEAN_MOTION,ECCENTRICITY,INCLINATION,RA_OF_ASC_NODE,ARG_OF_PERICENTER,MEAN_ANOMALY,BSTAR,MEAN_MOTION_DOT,MEAN_MOTION_DDOT,TLE_LINE0,TLE_LINE1,TLE_LINE2,SEMIMAJOR_AXIS,PERIOD,APOGEE,PERIGEE,DECAYED
49766.0,STARLINK-3190,PAYLOAD,2023-08-17 09:52:20,15.08841026,0.0001178,53.2166,17.7573,79.1316,280.9809,0.00014828,2.073e-05,0.0,0 STARLINK-3190,1 49766U 21115AU  23229.41135378  .00002073  00000-0  14828-3 0  9990,2 49766  53.2166  17.7573 0001178  79.1316 280.9809 15.08841026 95590,6917.877,95.437,540.557,538.927,0.0
49766.0,STARLINK-3190,PAYLOAD,2023-08-18 09:43:08,15.08836982,0.0001472,53.2153,13.2991,69.2504,290.8646,0.00018698,2.689e-05,0.0,0 STARLINK-3190,1 49766U 21115AU  23230.40495726  .00002689  00000-0  18698-3 0  9999,2 49766  53.2153  13.2991 0001472  69.2504 290.8646 15.08836982 95748,6917.89,95.438,540.773,538.736,0.0
49766.0,STARLINK-3190,PAYLOAD,2023-08-18 19:15:26,15.0884639,0.000104,53.2172,11.5147,82.8814,277.2297,0.00013534,1.867e-05,0.0,0 STARLINK-3190,1 49766U 21115AU  23230.80239177  .00001867  00000-0  13534-3 0  9990,2 49766  53.2172  11.5147 0001040  82.8814 277.2297 15.08846390 95801,6917.861,95.437,540.445,539.006,0.0
49766.0,STARLINK-3190,PAYLOAD,2023-08-19 09:33:55,15.08837657,0.0001242,53.2175,8.8381,85.9157,274.1978,2.7243e-06,-2.44e-06,0.0,0 STARLINK-3190,1 49766U 21115AU  23231.39855658 -.00000244  00000-0  27243-5 0  9996,2 49766  53.2175   8.8381 0001242  85.9157 274.1978 15.08837657 95898,6917.888,95.438,540.612,538.893,0.0
49766.0,STARLINK-3190,PAYLOAD,2023-08-20 12:35:28,15.08841664,0.000105,53.2189,3.783,98.4023,261.7089,0.00016563,2.349e-05,0.0,0 STARLINK-3190,1 49766U 21115AU  23232.52463715  .00002349  00000-0  16563-3 0  9999,2 49766  53.2189   3.7830 0001050  98.4023 261.7089 15.08841664 96062,6917.875,95.437,540.467,539.014,0.0
49766.0,STARLINK-3190,PAYLOAD,2023-08-21 14:01:39,15.08838273,0.0001155,53.219,359.0256,97.0102,263.1021,8.3595e-05,1.043e-05,0.0,0 STARLINK-3190,1 49766U 21115AU  23233.58447935  .00001043  00000-0  83595-4 0  9992,2 49766  53.2190 359.0256 0001155  97.0102 263.1021 15.08838273 96224,6917.886,95.438,540.55,538.952,0.0
49766.0,STARLINK-3190,PAYLOAD,2023-08-22 20:13:57,15.08853938,0.0001199,53.2184,353.3714,109.5186,250.5936,0.00022287,3.262e-05,0.0,0 STARLINK-3190,1 49766U 21115AU  23234.84303073  .00003262  00000-0  22287-3 0  9991,2 49766  53.2184 353.3714 0001199 109.5186 250.5936 15.08853938 96413,6917.838,95.437,540.532,538.873,0.0
49766.0,STARLINK-3190,PAYLOAD,2023-08-23 12:07:50,15.08835778,0.0001375,53.219,350.4044,51.1121,308.9994,1.1597e-05,-1.03e-06,0.0,0 STARLINK-3190,1 49766U 21115AU  23235.50544087 -.00000103  00000-0  11597-4 0  9992,2 49766  53.2190 350.4044 0001375  51.1121 308.9994 15.08835778 96516,6917.893,95.438,540.71,538.807,0.0
49766.0,STARLINK-3190,PAYLOAD,2023-08-24 11:58:36,15.08856107,0.000122,53.2165,345.9444,45.6792,314.43,-0.00043303,-7.176e-05,0.0,0 STARLINK-3190,1 49766U 21115AU  23236.49903157 -.00007176  00000-0 -43303-3 0  9995,2 49766  53.2165 345.9444 0001220  45.6792 314.4300 15.08856107 96660,6917.831,95.437,540.54,538.852,0.0
49766.0,STARLINK-3190,PAYLOAD,2023-08-25 10:14:00,15.08842469,9.7e-05,53.2172,341.7784,75.7163,284.3936,0.00018223,2.614e-05,0.0,0 STARLINK-3190,1 49766U 21115AU  23237.42639966  .00002614  00000-0  18223-3 0  9996,2 49766  53.2172 341.7784 0000970  75.7163 284.3936 15.08842469 96808,6917.873,95.437,540.409,539.067,0.0
49766.0,STARLINK-3190,PAYLOAD,2023-08-25 13:24:47,15.08844625,0.0001243,53.2162,341.1862,58.1517,301.9596,0.00022278,3.26e-05,0.0,0 STARLINK-3190,1 49766U 21115AU  23237.55888000  .00003260  00000-0  22278-3 0  9998,2 49766  53.2162 341.1862 0001243  58.1517 301.9596 15.08844625 95713,6917.866,95.437,540.591,538.871,0.0
49766.0,STARLINK-3190,PAYLOAD,2023-08-25 16:35:33,15.08851169,0.0001034,53.217,340.5893,76.0916,284.0191,0.00028582,4.265e-05,0.0,0 STARLINK-3190,1 49766U 21115AU  23237.69135555  .00004265  00000-0  28582-3 0  9993,2 49766  53.2170 340.5893 0001034  76.0916 284.0191 15.08851169 95734,6917.846,95.437,540.427,538.996,0.0
49766.0,STARLINK-3190,PAYLOAD,2023-08-26 10:04:48,15.08837856,0.0001129,53.2166,337.3189,76.3732,283.7386,7.1583e-05,8.52e-06,0.0,0 STARLINK-3190,1 49766U 21115AU  23238.42000304  .00000852  00000-0  71583-4 0  9996,2 49766  53.2166 337.3189 0001129  76.3732 283.7386 15.08837856 96959,6917.887,95.438,540.533,538.971,0.0
49766.0,STARLINK-3190,PAYLOAD,2023-08-26 11:40:11,15.08839029,0.000108,53.2169,337.0212,79.8156,280.2958,9.7078e-05,1.257e-05,0.0,0 STARLINK-3190,1 49766U 21115AU  23238.48624262  .00001257  00000-0  97078-4 0  9994,2 49766  53.2169 337.0212 0001080  79.8156 280.2958 15.08839029 95859,6917.883,95.438,540.495,539.001,0.0
49766.0,STARLINK-3190,PAYLOAD,2023-08-26 16:26:20,15.08844836,0.0001049,53.2179,336.1288,84.0913,276.0198,0.00021315,3.107e-05,0.0,0 STARLINK-3190,1 49766U 21115AU  23238.68496053  .00003107  00000-0  21315-3 0  9997,2 49766  53.2179 336.1288 0001049  84.0913 276.0198 15.08844836 95881,6917.866,95.437,540.456,539.005,0.0
49766.0,STARLINK-3190,PAYLOAD,2023-08-27 09:55:35,15.0883698,0.0001443,53.2199,332.86,106.3045,253.8106,5.9864e-05,6.65e-06,0.0,0 STARLINK-3190,1 49766U 21115AU  23239.41360516  .00000665  00000-0  59864-4 0  9990,2 49766  53.2199 332.8600 0001443 106.3045 253.8106 15.08836980 95991,6917.89,95.438,540.753,538.756,0.0
49766.0,STARLINK-3190,PAYLOAD,2023-08-27 16:17:07,15.08844447,0.0001319,53.2197,331.6705,100.2822,259.8319,0.00019996,2.896e-05,0.0,0 STARLINK-3190,1 49766U 21115AU  23239.67856293  .00002896  00000-0  19996-3 0  9999,2 49766  53.2197 331.6705 0001319 100.2822 259.8319 15.08844447 97148,6917.867,95.437,540.644,538.819,0.0
49766.0,STARLINK-3190,PAYLOAD,2023-08-28 09:46:22,15.08838884,0.0001336,53.2193,328.3981,102.4721,257.6421,0.00012544,1.709e-05,0.0,0 STARLINK-3190,1 49766U 21115AU  23240.40720616  .00001709  00000-0  12544-3 0  9995,2 49766  53.2193 328.3981 0001336 102.4721 257.6421 15.08838884 97254,6917.884,95.438,540.673,538.825,0.0
49766.0,STARLINK-3190,PAYLOAD,2023-08-28 14:32:31,15.08845197,0.0001322,53.2186,327.5062,86.6006,273.5137,0.00018982,2.735e-05,0.0,0 STARLINK-3190,1 49766U 21115AU  23240.60592330  .00002735  00000-0  18982-3 0  9999,2 49766  53.2186 327.5062 0001322  86.6006 273.5137 15.08845197 96177,6917.865,95.437,540.644,538.815,0.0
49766.0,STARLINK-3190,PAYLOAD,2023-08-29 14:23:18,15.08846793,0.0001231,53.2174,323.0451,78.7698,281.3433,0.00011788,1.589e-05,0.0,0 STARLINK-3190,1 49766U 21115AU  23241.59952189  .00001589  00000-0  11788-3 0  9993,2 49766  53.2174 323.0451 0001231  78.7698 281.3433 15.08846793 97434,6917.86,95.437,540.576,538.873,0.0
49766.0,STARLINK-3190,PAYLOAD,2023-08-29 22:20:14,15.08836166,0.0001652,53.2189,321.5606,90.5734,269.5448,-4.7224e-05,-1.039e-05,0.0,0 STARLINK-3190,1 49766U 21115AU  23241.93072780 -.00001039  00000-0 -47224-4 0  9998,2 49766  53.2189 321.5606 0001652  90.5734 269.5448 15.08836166 97487,6917.892,95.438,540.9,538.614,0.0
49766.0,STARLINK-3190,PAYLOAD,2023-08-30 17:24:52,15.08844428,0.0001241,53.2172,317.9894,80.0001,280.1131,6.3687e-05,7.26e-06,0.0,0 STARLINK-3190,1 49766U 21115AU  23242.72560353  .00000726  00000-0  63687-4 0  9995,2 49766  53.2172 317.9894 0001241  80.0001 280.1131 15.08844428 97604,6917.867,95.437,540.59,538.873,0.0
49766.0,STARLINK-3190,PAYLOAD,2023-08-31 17:15:38,15.08846331,2.44e-05,53.2174,313.5302,111.1796,248.9223,0.00010449,1.376e-05,0.0,0 STARLINK-3190,1 49766U 21115AU  23243.71919940  .00001376  00000-0  10449-3 0  9994,2 49766  53.2174 313.5302 0000244 111.1796 248.9223 15.08846331 96643,6917.861,95.437,539.895,539.557,0.0
49766.0,STARLINK-3190,PAYLOAD,2023-09-01 10:44:53,15.0883891,5.91e-05,53.2163,310.257,119.0878,241.0173,0.00023118,3.393e-05,0.0,0 STARLINK-3190,1 49766U 21115AU  23244.44784688  .00003393  00000-0  23118-3 0  9992,2 49766  53.2163 310.2570 0000591 119.0878 241.0173 15.08838910 97862,6917.884,95.438,540.158,539.34,0.0
49766.0,STARLINK-3190,PAYLOAD,2023-09-01 13:55:39,15.08848421,0.00013,53.2164,309.6633,89.5859,270.5282,0.00017187,2.449e-05,0.0,0 STARLINK-3190,1 49766U 21115AU  23244.58032396  .00002449  00000-0  17187-3 0  9999,2 49766  53.2164 309.6633 0001300  89.5859 270.5282 15.08848421 97882,6917.855,95.437,540.619,538.82,0.0
49766.0,STARLINK-3190,PAYLOAD,2023-09-02 10:35:40,15.08845987,0.0001499,53.2167,305.8005,85.9197,274.1966,0.00011719,1.578e-05,0.0,0 STARLINK-3190,1 49766U 21115AU  23245.44144579  .00001578  00000-0  11719-3 0  9999,2 49766  53.2167 305.8005 0001499  85.9197 274.1966 15.08845987 98019,6917.862,95.437,540.764,538.69,0.0
49766.0,STARLINK-3190,PAYLOAD,2023-09-02 15:21:51,15.08825379,0.0001505,53.2155,304.9081,81.1305,278.9858,0.00071225,0.00011061,0.0,0 STARLINK-3190,1 49766U 21115AU  23245.64017432  .00011061  00000-0  71225-3 0  9994,2 49766  53.2155 304.9081 0001505  81.1305 278.9858 15.08825379 98045,6917.925,95.438,540.831,538.749,0.0
49766.0,STARLINK-3190,PAYLOAD,2023-09-02 21:43:22,15.08843862,0.000146,53.2153,303.7179,75.7189,284.3966,0.00015728,2.216e-05,0.0,0 STARLINK-3190,1 49766U 21115AU  23245.90512644  .00002216  00000-0  15728-3 0  9996,2 49766  53.2153 303.7179 0001460  75.7189 284.3966 15.08843862 98089,6917.869,95.437,540.744,538.724,0.0
49766.0,STARLINK-3190,PAYLOAD,2023-09-03 08:51:04,15.08846851,0.000147,53.2162,301.6355,84.976,275.14,8.0608e-05,9.95e-06,0.0,0 STARLINK-3190,1 49766U 21115AU  23246.36880309  .00000995  00000-0  80608-4 0  9995,2 49766  53.2162 301.6355 0001470  84.9760 275.1400 15.08846851 97047,6917.859,95.437,540.741,538.708,0.0
49766.0,STARLINK-3190,PAYLOAD,2023-09-03 15:12:36,15.08854256,0.0001479,53.2163,300.4462,89.3152,270.8009,0.00019798,2.865e-05,0.0,0 STARLINK-3190,1 49766U 21115AU  23246.63375829  .00002865  00000-0  19798-3 0  9990,2 49766  53.2163 300.4462 0001479  89.3152 270.8009 15.08854256 98199,6917.837,95.437,540.725,538.679,0.0
